NORAD_CAT_ID,OBJECT_NAME,OBJECT_TYPE,EPOCH,MEAN_MOTION,ECCENTRICITY,INCLINATION,RA_OF_ASC_NODE,ARG_OF_PERICENTER,MEAN_ANOMALY,BSTAR,MEAN_MOTION_DOT,MEAN_MOTION_DDOT,TLE_LINE0,TLE_LINE1,TLE_LINE2,SEMIMAJOR_AXIS,PERIOD,APOGEE,PERIGEE,DECAYED
52501.0,STARLINK-3907,PAYLOAD,2022-12-22 18:21:32,15.08846277,0.0002806,53.2175,274.5988,29.7224,330.3927,0.00011585,1.556e-05,0.0,0 STARLINK-3907,1 52501U 22049BC  22356.76496035  .00001556  00000-0  11585-3 0  9998,2 52501  53.2175 274.5988 0002806  29.7224 330.3927 15.08846277 35321,6917.861,95.437,541.6669999999998,537.785,0.0
52501.0,STARLINK-3907,PAYLOAD,2022-12-22 23:07:42,15.088362900000002,0.0002772,53.2179,273.7049,28.3569,331.7574,4.227600000000001e-05,3.84e-06,0.0,0 STARLINK-3907,1 52501U 22049BC  22356.96368869  .00000384  00000-0  42276-4 0  9993,2 52501  53.2179 273.7049 0002772  28.3569 331.7574 15.08836290 35511,6917.892,95.438,541.674,537.839,0.0
52501.0,STARLINK-3907,PAYLOAD,2022-12-23 11:50:48,15.08826234,0.0002812,53.2181,271.3262,30.1885,329.9269,9.9797e-05,1.3e-05,0.0,0 STARLINK-3907,1 52501U 22049BC  22357.49361546  .00001300  00000-0  99797-4 0  9996,2 52501  53.2181 271.3262 0002812  30.1885 329.9269 15.08826234 35597,6917.922,95.438,541.7330000000002,537.842,0.0
52501.0,STARLINK-3907,PAYLOAD,2022-12-24 00:33:52,15.08839892,0.0002827,53.218,268.9473,30.8551,329.2607,7.7295e-05,9.42e-06,0.0,0 STARLINK-3907,1 52501U 22049BC  22358.02352947  .00000942  00000-0  77295-4 0  9991,2 52501  53.2180 268.9473 0002827  30.8551 329.2607 15.08839892 35677,6917.880999999999,95.438,541.701,537.79,0.0
52501.0,STARLINK-3907,PAYLOAD,2022-12-24 11:41:34,15.08848588,0.0002892,53.2178,266.8655,32.423,327.694,3.0025e-05,1.89e-06,0.0,0 STARLINK-3907,1 52501U 22049BC  22358.48720366  .00000189  00000-0  30025-4 0  9998,2 52501  53.2178 266.8655 0002892  32.4230 327.6940 15.08848588 35581,6917.854,95.437,541.72,537.7180000000002,0.0
52501.0,STARLINK-3907,PAYLOAD,2022-12-24 18:03:06,15.08846682,0.0002778,53.2178,265.6757,32.6423,327.4741,7.2285e-05,8.62e-06,0.0,0 STARLINK-3907,1 52501U 22049BC  22358.75216130  .00000862  00000-0  72285-4 0  9999,2 52501  53.2178 265.6757 0002778  32.6423 327.4741 15.08846682 35625,6917.86,95.437,541.6469999999998,537.803,0.0
52501.0,STARLINK-3907,PAYLOAD,2022-12-24 21:13:52,15.08849554,0.0002799,53.2177,265.0812,32.8794,327.2371,9.1704e-05,1.172e-05,0.0,0 STARLINK-3907,1 52501U 22049BC  22358.88463808  .00001172  00000-0  91704-4 0  9991,2 52501  53.2177 265.0812 0002799  32.8794 327.2371 15.08849554 35804,6917.851,95.437,541.6519999999998,537.78,0.0
52501.0,STARLINK-3907,PAYLOAD,2022-12-25 03:35:25,15.08845857,0.0002868,53.2179,263.893,30.0021,330.1135,0.00011404,1.527e-05,0.0,0 STARLINK-3907,1 52501U 22049BC  22359.14959871  .00001527  00000-0  11404-3 0  9993,2 52501  53.2179 263.8930 0002868  30.0021 330.1135 15.08845857 35682,6917.861999999999,95.437,541.712,537.743,0.0
52501.0,STARLINK-3907,PAYLOAD,2022-12-25 17:53:54,15.08834068,0.0002744,53.2177,261.215,34.0666,326.0502,-1.7009e-06,-3.16e-06,0.0,0 STARLINK-3907,1 52501U 22049BC  22359.74577080 -.00000316  00000-0 -17009-5 0  9993,2 52501  53.2177 261.2150 0002744  34.0666 326.0502 15.08834068 35930,6917.899,95.438,541.6619999999998,537.865,0.0
52501.0,STARLINK-3907,PAYLOAD,2022-12-26 03:26:13,15.08838639,0.0002722,53.2175,259.4325,26.4754,333.6376,-3.8869e-05,-9.07e-06,0.0,0 STARLINK-3907,1 52501U 22049BC  22360.14321023 -.00000907  00000-0 -38869-4 0  9995,2 52501  53.2175 259.4325 0002722  26.4754 333.6376 15.08838639 35830,6917.885,95.438,541.633,537.867,0.0
52501.0,STARLINK-3907,PAYLOAD,2022-12-26 17:44:41,15.08836438,0.0002807,53.2189,256.7576,30.9721,329.1436,-8.8962e-05,-1.704e-05,0.0,0 STARLINK-3907,1 52501U 22049BC  22360.73937455 -.00001704  00000-0 -88962-4 0  9997,2 52501  53.2189 256.7576 0002807  30.9721 329.1436 15.08836438 35923,6917.891,95.438,541.698,537.814,0.0
52501.0,STARLINK-3907,PAYLOAD,2022-12-27 03:17:00,15.08843732,0.0002862,53.2186,254.9733,30.2295,329.8861,-2.329e-05,-6.59e-06,0.0,0 STARLINK-3907,1 52501U 22049BC  22361.13680611 -.00000659  00000-0 -23290-4 0  9992,2 52501  53.2186 254.9733 0002862  30.2295 329.8861 15.08843732 36144,6917.869000000002,95.437,541.714,537.754,0.0
52501.0,STARLINK-3907,PAYLOAD,2022-12-27 09:38:31,15.088523,0.0002843,53.2172,253.7827,32.4148,327.7019,0.00014902,2.085e-05,0.0,0 STARLINK-3907,1 52501U 22049BC  22361.40175481  .00002085  00000-0  14902-3 0  9998,2 52501  53.2172 253.7827 0002843  32.4148 327.7019 15.08852300 36187,6917.843000000003,95.437,541.675,537.741,0.0
52501.0,STARLINK-3907,PAYLOAD,2022-12-27 17:35:27,15.0884758,0.000285,53.2181,252.2965,32.9671,327.1498,0.00013603,1.878e-05,0.0,0 STARLINK-3907,1 52501U 22049BC  22361.73295793  .00001878  00000-0  13603-3 0  9999,2 52501  53.2181 252.2965 0002850  32.9671 327.1498 15.08847580 36075,6917.857,95.437,541.694,537.751,0.0
52501.0,STARLINK-3907,PAYLOAD,2022-12-28 01:32:22,15.08853463,0.0002829,53.2181,250.8098,36.4409,323.6775,9.7294e-05,1.261e-05,0.0,0 STARLINK-3907,1 52501U 22049BC  22362.06415407  .00001261  00000-0  97294-4 0  9997,2 52501  53.2181 250.8098 0002829  36.4409 323.6775 15.08853463 36122,6917.839,95.437,541.661,537.747,0.0
52501.0,STARLINK-3907,PAYLOAD,2022-12-28 19:01:38,15.08835666,0.0002089999999999,53.2187,247.539,23.5978,336.511,-0.00011208,-2.071e-05,0.0,0 STARLINK-3907,1 52501U 22049BC  22362.79281173 -.00002071  00000-0 -11208-3 0  9990,2 52501  53.2187 247.5390 0002090  23.5978 336.5110 15.08835666 36394,6917.894,95.438,541.2040000000002,538.313,0.0
52501.0,STARLINK-3907,PAYLOAD,2022-12-29 09:20:07,15.08830595,0.0002693,53.2179,244.8631,26.4875,333.6254,-0.00015893,-2.816e-05,0.0,0 STARLINK-3907,1 52501U 22049BC  22363.38898101 -.00002816  00000-0 -15893-3 0  9992,2 52501  53.2179 244.8631 0002693  26.4875 333.6254 15.08830595 36483,6917.909000000002,95.438,541.637,537.911,0.0
52501.0,STARLINK-3907,PAYLOAD,2022-12-29 18:52:27,15.08822101,0.0002998999999999,53.2161,243.0785,31.5398,328.5774,-0.00016308,-2.882e-05,0.0,0 STARLINK-3907,1 52501U 22049BC  22363.78643125 -.00002882  00000-0 -16308-3 0  9995,2 52501  53.2161 243.0785 0002999  31.5398 328.5774 15.08822101 36542,6917.935,95.439,541.875,537.725,0.0
52501.0,STARLINK-3907,PAYLOAD,2022-12-30 09:10:55,15.08840018,0.0002846,53.2161,240.4032,29.6089,330.5064,-0.00018397,-3.216e-05,0.0,0 STARLINK-3907,1 52501U 22049BC  22364.38258436 -.00003216  00000-0 -18397-3 0  9991,2 52501  53.2161 240.4032 0002846  29.6089 330.5064 15.08840018 36636,6917.88,95.438,541.714,537.7769999999998,0.0
52501.0,STARLINK-3907,PAYLOAD,2022-12-31 09:01:42,15.08849076,0.0002955,53.216,235.9418,28.6986,331.4168,0.00050566,7.771e-05,0.0,0 STARLINK-3907,1 52501U 22049BC  22365.37618482  .00007771  00000-0  50566-3 0  9994,2 52501  53.2160 235.9418 0002955  28.6986 331.4168 15.08849076 36782,6917.853,95.437,541.762,537.673,0.0
52501.0,STARLINK-3907,PAYLOAD,2022-12-31 18:34:01,15.08857434,0.0002953999999999,53.2156,234.157,29.6798,330.4362,0.00061852,9.574e-05,0.0,0 STARLINK-3907,1 52501U 22049BC  22365.77362291  .00009574  00000-0  61852-3 0  9995,2 52501  53.2156 234.1570 0002954  29.6798 330.4362 15.08857434 36689,6917.8269999999975,95.436,541.736,537.649,0.0
52501.0,STARLINK-3907,PAYLOAD,2023-01-01 08:52:29,15.08849349,0.0003095,53.2161,231.481,27.7556,332.3601,0.00015983,2.257e-05,0.0,0 STARLINK-3907,1 52501U 22049BC  23001.36978310  .00002257  00000-0  15983-3 0  9998,2 52501  53.2161 231.4810 0003095  27.7556 332.3601 15.08849349 36773,6917.852,95.437,541.8580000000002,537.576,0.0
52501.0,STARLINK-3907,PAYLOAD,2023-01-01 15:14:01,15.0884311,0.0003217,53.2156,230.2913,33.644,326.4756,-4.777600000000001e-05,-1.049e-05,0.0,0 STARLINK-3907,1 52501U 22049BC  23001.63474414 -.00001049  00000-0 -47776-4 0  9990,2 52501  53.2156 230.2913 0003217  33.6440 326.4756 15.08843110 36979,6917.871,95.437,541.961,537.51,0.0
52501.0,STARLINK-3907,PAYLOAD,2023-01-01 21:35:34,15.08839029,0.0003093,53.2157,229.1018,32.7071,327.4113,-2.7203e-05,-7.22e-06,0.0,0 STARLINK-3907,1 52501U 22049BC  23001.89970556 -.00000722  00000-0 -27203-4 0  9996,2 52501  53.2157 229.1018 0003093  32.7071 327.4113 15.08839029 36854,6917.8830000000025,95.438,541.888,537.609,0.0
52501.0,STARLINK-3907,PAYLOAD,2023-01-02 00:46:20,15.08838133,0.0002969,53.2167,228.507,30.5698,329.5467,6.592e-05,7.61e-06,0.0,0 STARLINK-3907,1 52501U 22049BC  23002.03218639  .00000761  00000-0  65920-4 0  9999,2 52501  53.2167 228.5070 0002969  30.5698 329.5467 15.08838133 36870,6917.886,95.438,541.805,537.697,0.0
52501.0,STARLINK-3907,PAYLOAD,2023-01-02 21:26:21,15.08844661,0.0002996999999999,53.2166,224.6417,30.7604,329.3563,0.00047367,7.259e-05,0.0,0 STARLINK-3907,1 52501U 22049BC  23002.89330785  .00007259  00000-0  47367-3 0  9993,2 52501  53.2166 224.6417 0002997  30.7604 329.3563 15.08844661 37162,6917.866,95.437,541.804,537.658,0.0
52501.0,STARLINK-3907,PAYLOAD,2023-01-03 00:37:07,15.088479199999998,0.0003015,53.2165,224.0469,31.1609,328.9562,0.00051035,7.845e-05,0.0,0 STARLINK-3907,1 52501U 22049BC  23003.02578682  .00007845  00000-0  51035-3 0  9997,2 52501  53.2165 224.0469 0003015  31.1609 328.9562 15.08847920 37024,6917.856,95.437,541.807,537.635,0.0
52501.0,STARLINK-3907,PAYLOAD,2023-01-03 21:17:08,15.08838002,0.0003057,53.2157,220.1803,30.5785,329.5385,3.0392e-05,1.95e-06,0.0,0 STARLINK-3907,1 52501U 22049BC  23003.88690946  .00000195  00000-0  30392-4 0  9994,2 52501  53.2157 220.1803 0003057  30.5785 329.5385 15.08838002 37311,6917.886,95.438,541.866,537.637,0.0
52501.0,STARLINK-3907,PAYLOAD,2023-01-04 06:49:27,15.08845546,0.0003116,53.216,218.3954,32.8457,327.2729,0.00021197,3.087e-05,0.0,0 STARLINK-3907,1 52501U 22049BC  23004.28434827  .00003087  00000-0  21197-3 0  9998,2 52501  53.2160 218.3954 0003116  32.8457 327.2729 15.08845546 37215,6917.863,95.437,541.884,537.573,0.0
